{
    "links": {
        "self": "http://www.neowsapp.com/rest/v1/neo/3831885?api_key=iIulBulltgU6a56xZRHN4H3l9WmuAYTsLGpBGhQ2"
    },
    "id": "3831885",
    "neo_reference_id": "3831885",
    "name": "(2018 TR6)",
    "designation": "2018 TR6",
    "nasa_jpl_url": "http://ssd.jpl.nasa.gov/sbdb.cgi?sstr=3831885",
    "absolute_magnitude_h": 23.8,
    "estimated_diameter": {
        "kilometers": {
            "estimated_diameter_min": 0.046190746,
            "estimated_diameter_max": 0.1032856481
        },
        "meters": {
            "estimated_diameter_min": 46.1907460282,
            "estimated_diameter_max": 103.2856480504
        },
        "miles": {
            "estimated_diameter_min": 0.0287015901,
            "estimated_diameter_max": 0.0641787064
        },
        "feet": {
            "estimated_diameter_min": 151.544447199,
            "estimated_diameter_max": 338.8636855496
        }
    },
    "is_potentially_hazardous_asteroid": false,
    "close_approach_data": [
        {
            "close_approach_date": "2018-10-04",
            "close_approach_date_full": "2018-Oct-04 08:42",
            "epoch_date_close_approach": 1538642520000,
            "relative_velocity": {
                "kilometers_per_second": "4.6061156035",
                "kilometers_per_hour": "16582.0161725341",
                "miles_per_hour": "10303.4199934282"
            },
            "miss_distance": {
                "astronomical": "0.1976460967",
                "lunar": "76.8843316163",
                "kilometers": "29567435.080134029",
                "miles": "18372352.2215024402"
            },
            "orbiting_body": "Earth"
        }
    ],
    "orbital_data": {
        "orbit_id": "3",
        "orbit_determination_date": "2018-11-12 06:57:26",
        "first_observation_date": "2018-10-15",
        "last_observation_date": "2018-11-11",
        "data_arc_in_days": 27,
        "observations_used": 14,
        "orbit_uncertainty": "8",
        "minimum_orbit_intersection": ".168042",
        "jupiter_tisserand_invariant": "3.493",
        "epoch_osculation": "2458411.5",
        "eccentricity": ".4747482886426462",
        "semi_major_axis": "2.219923995279377",
        "inclination": "2.321272939150739",
        "ascending_node_longitude": "344.2508638152077",
        "orbital_period": "1208.1075131022",
        "perihelion_distance": "1.166018877603747",
        "perihelion_argument": "31.66799429824646",
        "aphelion_distance": "3.273829112955007",
        "perihelion_time": "2458395.326809349588",
        "mean_anomaly": "4.81939609761849",
        "mean_motion": ".2979867239427936",
        "equinox": "J2000",
        "orbit_class": {
            "orbit_class_type": "AMO",
            "orbit_class_description": "Near-Earth asteroid orbits similar to that of 1221 Amor",
            "orbit_class_range": "1.017 AU < q (perihelion) < 1.3 AU"
        }
    },
    "is_sentry_object": false
}